{
  "type": "FeatureCollection",
  "features": [
    {
      "type": "Feature",
      "properties": {
        "norad_id": 22490,
        "name": "SCD 1",
        "group": "resource",
        "lat": -22.344996120709812,
        "lon": -140.40749579960047,
        "alt_km": 711.3370224200744,
        "timestamp": "2025-12-03T04:52:29.297707+00:00",
        "meta_object_name": "SCD 1",
        "meta_object_id": "1993-009B",
        "meta_epoch": "2025-12-02T16:54:04.309056",
        "meta_mean_motion": 14.45987016,
        "meta_eccentricity": 0.004184,
        "meta_inclination": 24.971,
        "meta_ra_of_asc_node": 340.6354,
        "meta_arg_of_pericenter": 218.2799,
        "meta_mean_anomaly": 303.4939,
        "meta_ephemeris_type": 0,
        "meta_classification_type": "U",
        "meta_norad_cat_id": 22490,
        "meta_element_set_no": 999,
        "meta_rev_at_epoch": 73264,
        "meta_bstar": 0.00012191,
        "meta_mean_motion_dot": 6.32e-06,
        "meta_mean_motion_ddot": 0,
        "tle_line1": "1 22490U 93009B   25336.70421654  .00000632  00000+0  12191-3 0  9993",
        "tle_line2": "2 22490  24.9710 340.6354 0041840 218.2799 303.4939 14.45987016732640"
      },
      "geometry": {
        "type": "Point",
        "coordinates": [
          -140.40749579960047,
          -22.344996120709812
        ]
      }
    },
    {
      "type": "Feature",
      "properties": {
        "norad_id": 25397,
        "name": "TECHSAT 1B (GO-32)",
        "group": "resource",
        "lat": -72.68563408945249,
        "lon": 109.67210513682359,
        "alt_km": 819.4894273647997,
        "timestamp": "2025-12-03T04:52:29.297736+00:00",
        "meta_object_name": "TECHSAT 1B (GO-32)",
        "meta_object_id": "1998-043D",
        "meta_epoch": "2025-12-02T14:11:36.880512",
        "meta_mean_motion": 14.24372378,
        "meta_eccentricity": 0.00022527,
        "meta_inclination": 98.9913,
        "meta_ra_of_asc_node": 319.5698,
        "meta_arg_of_pericenter": 74.0884,
        "meta_mean_anomaly": 286.0542,
        "meta_ephemeris_type": 0,
        "meta_classification_type": "U",
        "meta_norad_cat_id": 25397,
        "meta_element_set_no": 999,
        "meta_rev_at_epoch": 42334,
        "meta_bstar": 8.2023649e-05,
        "meta_mean_motion_dot": 1.43e-06,
        "meta_mean_motion_ddot": 0,
        "tle_line1": "1 25397U 98043D   25336.59139908  .00000143  00000+0  82024-4 0  9990",
        "tle_line2": "2 25397  98.9913 319.5698 0002252  74.0884 286.0542 14.24372378423344"
      },
      "geometry": {
        "type": "Point",
        "coordinates": [
          109.67210513682359,
          -72.68563408945249
        ]
      }
    },
    {
      "type": "Feature",
      "properties": {
        "norad_id": 25504,
        "name": "SCD 2",
        "group": "resource",
        "lat": -22.2658728896054,
        "lon": 139.19944927518807,
        "alt_km": 739.9411150316882,
        "timestamp": "2025-12-03T04:52:29.297752+00:00",
        "meta_object_name": "SCD 2",
        "meta_object_id": "1998-060A",
        "meta_epoch": "2025-12-02T08:22:08.651136",
        "meta_mean_motion": 14.45414,
        "meta_eccentricity": 0.00167262,
        "meta_inclination": 24.9937,
        "meta_ra_of_asc_node": 205.9699,
        "meta_arg_of_pericenter": 202.5525,
        "meta_mean_anomaly": 318.5622,
        "meta_ephemeris_type": 0,
        "meta_classification_type": "U",
        "meta_norad_cat_id": 25504,
        "meta_element_set_no": 999,
        "meta_rev_at_epoch": 43181,
        "meta_bstar": 9.8916166e-05,
        "meta_mean_motion_dot": 5.36e-06,
        "meta_mean_motion_ddot": 0,
        "tle_line1": "1 25504U 98060A   25336.34871124  .00000536  00000+0  98916-4 0  9998",
        "tle_line2": "2 25504  24.9937 205.9699 0016726 202.5525 318.5622 14.45414000431812"
      },
      "geometry": {
        "type": "Point",
        "coordinates": [
          139.19944927518807,
          -22.2658728896054
        ]
      }
    },
    {
      "type": "Feature",
      "properties": {
        "norad_id": 25757,
        "name": "DLR-TUBSAT",
        "group": "resource",
        "lat": -53.58734885213949,
        "lon": 129.50474013083124,
        "alt_km": 715.6541725330762,
        "timestamp": "2025-12-03T04:52:29.297765+00:00",
        "meta_object_name": "DLR-TUBSAT",
        "meta_object_id": "1999-029B",
        "meta_epoch": "2025-12-02T21:11:04.289856",
        "meta_mean_motion": 14.52351375,
        "meta_eccentricity": 0.0013372,
        "meta_inclination": 98.6555,
        "meta_ra_of_asc_node": 321.0927,
        "meta_arg_of_pericenter": 223.9038,
        "meta_mean_anomaly": 136.1095,
        "meta_ephemeris_type": 0,
        "meta_classification_type": "U",
        "meta_norad_cat_id": 25757,
        "meta_element_set_no": 999,
        "meta_rev_at_epoch": 40475,
        "meta_bstar": 5.9222e-05,
        "meta_mean_motion_dot": 1.93e-06,
        "meta_mean_motion_ddot": 0,
        "tle_line1": "1 25757U 99029B   25336.88268854  .00000193  00000+0  59222-4 0  9999",
        "tle_line2": "2 25757  98.6555 321.0927 0013372 223.9038 136.1095 14.52351375404754"
      },
      "geometry": {
        "type": "Point",
        "coordinates": [
          129.50474013083124,
          -53.58734885213949
        ]
      }
    },
    {
      "type": "Feature",
      "properties": {
        "norad_id": 25994,
        "name": "TERRA",
        "group": "resource",
        "lat": 4.176622537192508,
        "lon": 28.650202193183727,
        "alt_km": 693.4964502903103,
        "timestamp": "2025-12-03T04:52:29.297777+00:00",
        "meta_object_name": "TERRA",
        "meta_object_id": "1999-068A",
        "meta_epoch": "2025-12-02T19:24:36.152064",
        "meta_mean_motion": 14.6093363,
        "meta_eccentricity": 0.0003383,
        "meta_inclination": 97.9763,
        "meta_ra_of_asc_node": 28.8569,
        "meta_arg_of_pericenter": 117.8408,
        "meta_mean_anomaly": 333.6615,
        "meta_ephemeris_type": 0,
        "meta_classification_type": "U",
        "meta_norad_cat_id": 25994,
        "meta_element_set_no": 999,
        "meta_rev_at_epoch": 38093,
        "meta_bstar": 0.00015039,
        "meta_mean_motion_dot": 6.92e-06,
        "meta_mean_motion_ddot": 0,
        "tle_line1": "1 25994U 99068A   25336.80875176  .00000692  00000+0  15039-3 0  9999",
        "tle_line2": "2 25994  97.9763  28.8569 0003383 117.8408 333.6615 14.60933630380931"
      },
      "geometry": {
        "type": "Point",
        "coordinates": [
          28.650202193183727,
          4.176622537192508
        ]
      }
    },
    {
      "type": "Feature",
      "properties": {
        "norad_id": 27004,
        "name": "MAROC-TUBSAT",
        "group": "resource",
        "lat": -39.68666377306905,
        "lon": -42.75749794248273,
        "alt_km": 999.1287027422968,
        "timestamp": "2025-12-03T04:52:29.297789+00:00",
        "meta_object_name": "MAROC-TUBSAT",
        "meta_object_id": "2001-056D",
        "meta_epoch": "2025-12-02T10:24:58.972032",
        "meta_mean_motion": 13.70252105,
        "meta_eccentricity": 0.00191119,
        "meta_inclination": 99.7911,
        "meta_ra_of_asc_node": 144.6986,
        "meta_arg_of_pericenter": 287.5856,
        "meta_mean_anomaly": 100.9799,
        "meta_ephemeris_type": 0,
        "meta_classification_type": "U",
        "meta_norad_cat_id": 27004,
        "meta_element_set_no": 999,
        "meta_rev_at_epoch": 19924,
        "meta_bstar": 3.5947441e-05,
        "meta_mean_motion_dot": -1.5e-07,
        "meta_mean_motion_ddot": 0,
        "tle_line1": "1 27004U 01056D   25336.43401588 -.00000015  00000+0  35947-4 0  9995",
        "tle_line2": "2 27004  99.7911 144.6986 0019111 287.5856 100.9799 13.70252105199249"
      },
      "geometry": {
        "type": "Point",
        "coordinates": [
          -42.75749794248273,
          -39.68666377306905
        ]
      }
    },
    {
      "type": "Feature",
      "properties": {
        "norad_id": 27424,
        "name": "AQUA",
        "group": "resource",
        "lat": -29.109592033359252,
        "lon": 113.20732133359027,
        "alt_km": 693.4595459815437,
        "timestamp": "2025-12-03T04:52:29.297801+00:00",
        "meta_object_name": "AQUA",
        "meta_object_id": "2002-022A",
        "meta_epoch": "2025-12-02T21:37:19.748064",
        "meta_mean_motion": 14.61769935,
        "meta_eccentricity": 7.33e-05,
        "meta_inclination": 98.4023,
        "meta_ra_of_asc_node": 297.6211,
        "meta_arg_of_pericenter": 107.7415,
        "meta_mean_anomaly": 312.2799,
        "meta_ephemeris_type": 0,
        "meta_classification_type": "U",
        "meta_norad_cat_id": 27424,
        "meta_element_set_no": 999,
        "meta_rev_at_epoch": 25459,
        "meta_bstar": 0.00031293,
        "meta_mean_motion_dot": 1.512e-05,
        "meta_mean_motion_ddot": 0,
        "tle_line1": "1 27424U 02022A   25336.90092301  .00001512  00000+0  31293-3 0  9997",
        "tle_line2": "2 27424  98.4023 297.6211 0000733 107.7415 312.2799 14.61769935254592"
      },
      "geometry": {
        "type": "Point",
        "coordinates": [
          113.20732133359027,
          -29.109592033359252
        ]
      }
    }
  ]
}